BEIDOU 3 (C01)          
1 36287U 10001A   21053.52966258 -.00000279  00000-0  00000-0 0  9991
2 36287   1.7049  41.4584 0002630  96.0238 346.2352  1.00269669 40710
BEIDOU 5 (C06)          
1 36828U 10036A   21053.03835111 -.00000124  00000-0  00000-0 0  9998
2 36828  54.1767 180.6662 0107280 234.1565 227.2427  1.00297535 38753
BEIDOU 6 (C04)          
1 37210U 10057A   21053.63203785 -.00000110  00000-0  00000-0 0  9994
2 37210   0.9404  53.4308 0004340 194.4561 292.4368  1.00271497 37821
BEIDOU 7 (C07)          
1 37256U 10068A   21053.44058028 -.00000173  00000-0  00000-0 0  9992
2 37256  51.0566 295.3667 0081916 216.1160 277.7763  1.00293177 37344
BEIDOU 8 (C08)          
1 37384U 11013A   21053.02964046 -.00000150  00000-0  00000-0 0  9990
2 37384  59.6179  59.0644 0054914 207.0939  15.8082  1.00286224 36205
BEIDOU 9 (C09)          
1 37763U 11038A   21053.10631400 -.00000076  00000-0  00000-0 0  9999
2 37763  54.4644 183.0920 0078001 223.8933 237.4009  1.00288664 35181
BEIDOU 10 (C10)         
1 37948U 11073A   21052.87786501 -.00000119  00000-0  00000-0 0  9997
2 37948  51.1593 294.9855 0069318 215.2317  53.7727  1.00279307 33935
BEIDOU 11 (C05)         
1 38091U 12008A   21051.72271781  .00000057  00000-0  00000-0 0  9998
2 38091   2.0086  71.7405 0003703 261.2379 136.9289  1.00277867 33008
BEIDOU 12 (C11)         
1 38250U 12018A   21053.48131157 -.00000079  00000-0  00000-0 0  9998
2 38250  56.7565   9.4079 0023807 251.6916 358.6057  1.86234222 60148
BEIDOU 13 (C12)         
1 38251U 12018B   21053.57307020 -.00000080  00000-0  00000-0 0  9995
2 38251  56.6791   8.7604 0014783 257.2147  99.0436  1.86234086 60141
BEIDOU 15 (C14)         
1 38775U 12050B   21053.44875545 -.00000019  00000-0  00000-0 0  9992
2 38775  55.1560 127.8604 0013968 317.3484 152.9295  1.86232229 57526
BEIDOU 16 (C02)         
1 38953U 12059A   21053.58737689 -.00000175  00000-0  00000-0 0  9993
2 38953   1.6944  84.8806 0009351 265.9777  97.3236  1.00274204 30596
BEIDOU 17 (C31)         
1 40549U 15019A   21053.03097958 -.00000162  00000-0  00000-0 0  9990
2 40549  52.6785 318.3269 0036324 188.5695 111.1200  1.00291242 21616
BEIDOU 18 (C57)         
1 40748U 15037A   21053.42804509 -.00000082  00000-0  00000-0 0  9993
2 40748  55.9449   7.9214 0005218 339.7526 189.3043  1.86233333 37971
BEIDOU 19 (C58)         
1 40749U 15037B   21053.50607299 -.00000082  00000-0  00000-0 0  9990
2 40749  55.9482   7.9064 0007250 311.9180  46.0527  1.86232177 37968
BEIDOU 20 (C18)         
1 40938U 15053A   21053.03531292 -.00000076  00000-0  00000+0 0  9997
2 40938  52.2401 281.3805 0046149 190.3211 148.5595  1.00262546 19898
BEIDOU IGSO-6 (C13)     
1 41434U 16021A   21053.32200361 -.00000110  00000-0  00000-0 0  9997
2 41434  57.3952  57.8519 0040839 215.9075  89.0832  1.00292522 18010
BEIDOU-2 G7 (C03)       
1 41586U 16037A   21053.53387229 -.00000352  00000-0  00000-0 0  9992
2 41586   2.0131  69.8816 0009293 358.7206  26.6654  1.00266311 17338
BEIDOU-3 M1 (C19)       
1 43001U 17069A   21053.54319438 -.00000018  00000-0  00000-0 0  9999
2 43001  55.3118 127.7942 0009820 285.0220  44.9067  1.86231656 22454
BEIDOU-3 M2 (C20)       
1 43002U 17069B   21053.46116784 -.00000019  00000-0  00000-0 0  9991
2 43002  55.3099 127.8338 0008286 306.6646  11.8776  1.86231445 22445
BEIDOU-3 M3 (C27)       
1 43107U 18003A   21053.44045076 -.00000082  00000-0  00000-0 0  9999
2 43107  55.3853   9.0537 0004479  25.3825  85.1428  1.86232457 21211
BEIDOU-3 M4 (C28)       
1 43108U 18003B   21053.34232297 -.00000082  00000-0  00000-0 0  9992
2 43108  55.3803   9.0479 0004071 262.3439 187.5767  1.86232494 21218
BEIDOU-3 M5 (C21)       
1 43207U 18018A   21052.04477312 -.00000028  00000-0  00000-0 0  9993
2 43207  55.2681 127.9754 0006159 324.9622  35.0447  1.86231644 20571
BEIDOU-3 M6 (C22)       
1 43208U 18018B   21053.18538441 -.00000021  00000-0  00000-0 0  9994
2 43208  55.2680 127.9419 0008586 295.4464  64.5140  1.86231784 20595
BEIDOU-3 M7 (C29)       
1 43245U 18029A   21053.54606012 -.00000083  00000-0  00000-0 0  9995
2 43245  55.3217   6.8466 0001749 315.5461 135.9293  1.86232827 19752
BEIDOU-3 M8 (C30)       
1 43246U 18029B   21050.42987508 -.00000091  00000-0  10000-3 0  9995
2 43246  55.3185   6.9845 0005271 335.8506 232.4547  1.86232722 19689
BEIDOU IGSO-7 (C16)     
1 43539U 18057A   21053.61675681 -.00000137  00000-0  00000-0 0  9998
2 43539  55.0558 179.9855 0032125 212.8738  93.2981  1.00248241  9690
BEIDOU-3 M9 (C23)       
1 43581U 18062A   21053.56226556  .00000088  00000-0  00000-0 0  9992
2 43581  54.4507 248.5416 0002298 320.0730  38.1695  1.86231796 17489
BEIDOU-3 M10 (C24)      
1 43582U 18062B   21053.21928111  .00000088  00000-0  00000-0 0  9991
2 43582  54.4489 248.5411 0006483  15.6243 203.9205  1.86232150 17484
BEIDOU-3 M11 (C25)      
1 43602U 18067A   21053.12172887  .00000089  00000-0  00000-0 0  9991
2 43602  54.5244 247.1167 0007368   6.1419 190.3954  1.86231609 16974
BEIDOU-3 M12 (C26)      
1 43603U 18067B   21053.46168620  .00000089  00000-0  00000-0 0  9999
2 43603  54.5201 247.0743 0004638   0.9617 333.9833  1.86231457 16990
BEIDOU-3 M13 (C32)      
1 43622U 18072A   21053.35939911 -.00000020  00000-0  00000-0 0  9999
2 43622  55.2340 127.5046 0006574 279.2755  17.3833  1.86231489 16501
BEIDOU-3 M14 (C33)      
1 43623U 18072B   21053.47508905 -.00000019  00000-0  00000-0 0  9996
2 43623  55.2350 127.4913 0004682 303.4107 161.0467  1.86231457 16510
BEIDOU-3 M15 (C34)      
1 43647U 18078A   21053.28463523 -.00000084  00000-0  10000-3 0  9999
2 43647  55.2149   7.0555 0007659 345.1762 246.7981  1.86232912 16018
BEIDOU-3 M16 (C35)      
1 43648U 18078B   21053.41490590 -.00000084  00000-0  10000-3 0  9999
2 43648  55.2114   7.0592 0005445 350.0315 237.9384  1.86232369 16039
BEIDOU-3 G1 (C59)       
1 43683U 18085A   21053.33920889 -.00000276  00000-0  00000-0 0  9995
2 43683   1.2539 239.7257 0002917  40.4446 134.4553  1.00272701  8601
BEIDOU-3 M17 (C36)      
1 43706U 18093A   21052.45972786  .00000087  00000-0  00000-0 0  9994
2 43706  54.5302 248.4290 0007602 279.8846 284.1101  1.86231768 15363
BEIDOU-3 M18 (C37)      
1 43707U 18093B   21053.63160862  .00000088  00000-0  00000-0 0  9991
2 43707  54.5306 248.3778 0007248 311.1069  49.3317  1.86232038 15395
BEIDOU-3 IGSO-1 (C38)   
1 44204U 19023A   21053.40361559 -.00000173  00000-0  00000-0 0  9995
2 44204  55.8560  58.1680 0017195 204.9483 149.0474  1.00273841  6894
BEIDOU-2 G8             
1 44231U 19027A   21053.58237722 -.00000244  00000-0  00000-0 0  9991
2 44231   0.4405 315.0551 0007081 269.5767 282.2294  1.00275265  6628
BEIDOU-3 IGSO-2 (C39)   
1 44337U 19035A   21053.62075796 -.00000136  00000-0  00000-0 0  9993
2 44337  55.0870 176.0308 0017220 187.0299 120.4048  1.00266027  6235
BEIDOU-3 M23 (C45)      
1 44542U 19061A   21053.45768288  .00000089  00000-0  10000-3 0  9996
2 44542  54.7547 248.4413 0008320 344.6738 212.5981  1.86231616  9648
BEIDOU-3 M24 (C46)      
1 44543U 19061B   21053.06887885  .00000089  00000-0  10000-3 0  9999
2 44543  54.7540 248.4255 0005547 344.4583 222.8307  1.86231980  9640
BEIDOU-3 IGSO-3         
1 44709U 19073A   21053.61416190 -.00000134  00000-0  00000-0 0  9992
2 44709  58.0174 301.3382 0018808 192.4287 346.5493  1.00259978  4996
BEIDOU-3 M21            
1 44793U 19078A   21052.73597752 -.00000085  00000-0  10000-3 0  9995
2 44793  55.0617   7.1538 0007302 350.1775 188.5418  1.86232489  8496
BEIDOU-3 M22            
1 44794U 19078B   21053.20310181 -.00000084  00000-0  10000-3 0  9997
2 44794  55.0376   7.1400 0005395 343.1823  59.4808  1.86233042  8500
BEIDOU-3 M19            
1 44864U 19090A   21053.51020620 -.00000018  00000-0  00000-0 0  9992
2 44864  55.1695 127.7350 0016171 262.8849 180.2865  1.86231762  8092
BEIDOU-3 M20            
1 44865U 19090B   21053.45219523 -.00000019  00000-0  00000-0 0  9999
2 44865  55.1695 127.7678 0014752 278.0821 216.1188  1.86231689  8071
BEIDOU-3 G2             
1 45344U 20017A   21053.58650453 -.00000135  00000-0  00000-0 0  9997
2 45344   2.5843 333.6083 0001867  41.5402  68.6931  1.00271869  3806
BEIDOU-3 G3             
1 45807U 20040A   21053.01715823 -.00000348  00000-0  00000-0 0  9994
2 45807   2.5489 298.3218 0009654  16.3490 313.9838  1.00264818  2618
